STARLINK-30600          
1 58100U 23161D   26068.57561683 -.00000026  00000+0  11243-4 0  9993
2 58100  53.1609 166.0889 0001272 107.9519 252.1621 15.30187522134407
HERMES-3                
1 63835U 25052BR  26068.93751242  .00020316  00000+0  69958-3 0  9995
2 63835  97.3987 324.6131 0007993 112.9583 247.2502 15.30039785 54863
